<?xml version="1.0" encoding="utf-8"?>
<gpx version="1.1" creator="osmand-itic-live-traffic" xmlns="http://www.topografix.com/GPX/1/1" xmlns:xsi="http://www.w3.org/2001/XMLSchema-instance" xsi:schemaLocation="http://www.topografix.com/GPX/1/1 http://www.topografix.com/GPX/1/1/gpx.xsd">
  <metadata>
    <name>iTIC live events</name>
    <desc>Generated from iTIC/Longdo open feeds. Data belongs to iTIC/Longdo.</desc>
  </metadata>
  <wpt lat="13.665717" lon="100.644820">
    <name>รถเสีย ทางพิเศษบูรพาวิถี</name>
    <desc>ทางพิเศษบูรพาวิถี แขวงบางนาใต้ เขตบางนา กรุงเทพมหานคร 10260 รายงานโดย คุณชายติณ ปุลวัช</desc>
    <time>2026-10-10T20:04:09.038Z</time>
    <type>iTIC</type>
  </wpt>
  <wpt lat="13.784275" lon="100.397019">
    <name>คืบหน้าเพลิงไหม้รถยนต์  ทางคู่ขนานลอยฟ้าบรมราชชนนี ขาเข้า</name>
    <desc>เหตุเพลิงไหม้รถยนต์  บนทางด่วนคู่ขนานลอยฟ้าบรมราชชนนี เจ้าหน้าที่สถานีดับเพลิงและกู้ภัยตลิ่งชัน ถึงที่เกิดเหตุ ขณะนี้เพลิงสงบ

Cr. ศูนย์วิทยุพระราม199</desc>
    <time>2026-10-10T20:04:09.039Z</time>
    <type>iTIC</type>
  </wpt>
  <wpt lat="13.839778" lon="100.575819">
    <name>เบี่ยงจราจร อุโมงค์เกษตร</name>
    <desc>คืนวันอาทิตย์ที่ 11 ต.ค.69 ตั้งแต่เวลา 22.00 - 04.00 น. ของวันรุ่งขึ้น แขวงทางหลวงกรุงเทพ โดยหมวดทางหลวงรามอินทรา ประชาสัมพันธ์ ปิดเบี่ยงการจราจร เพื่อซ่อมผิวจราจรภายในอุโมงค์เกษตร ปิดเบี่ยงการจราจร 1 ช่องทาง โดยการดำเนินงานขึ้นอยู่กับสภาพอากาศ

CrJS 100</desc>
    <time>2026-10-10T20:04:09.039Z</time>
    <type>iTIC</type>
  </wpt>
  <wpt lat="13.612208" lon="100.847462">
    <name>น้ำท่วม ทางหลวงชนบทหมายเลข สป.2003</name>
    <desc>น้ำท่วม หน้า เอแบค บางนา ทางหลวงชนบทหมายเลข สป.2003 ต.บางบ่อ อ.บางบ่อ จ.สมุทรปราการ

Cr.NT</desc>
    <time>2026-10-10T20:04:09.039Z</time>
    <type>iTIC</type>
  </wpt>
  <wpt lat="13.895732" lon="100.588194">
    <name>ปิดสะพานกลับรถลูกเรือ ถนนวิภาวดีรังสิต</name>
    <desc>คืนนี้ (10 ต.ค.69) เวลา 23.00 - 04.00 น. ปิดสะพานกลับรถลูกเรือฯ หน้าแขวงทางหลวงฯ ถนนวิภาวดีรังสิต ชั่วคราว เพื่อดำเนินการติดตั้งรั้วกันตกบริเวณสะพานกลับรถฯ

Cr.JS 100</desc>
    <time>2026-10-10T20:04:09.039Z</time>
    <type>iTIC</type>
  </wpt>
  <wpt lat="13.655392" lon="100.541039">
    <name>น้ำท่วมทางหลวง 3113 ช่วงสำโรง - สะพานภูมิพล (ผ่านได้)</name>
    <desc>น้ำทะเลหนุนสูง (นอกพื้นที่เฝ้าระวัง) ทางหลวงหมายเลข 3113 ช่วงสำโรง - สะพานภูมิพล กม.ที่ 5+600 - 6+000 ต.บางหญ้าแพรก อ.พระประแดง จ.สมุทรปราการ
สาเหตุ: น้ำทะเลหนุนสูง ระดับ 3.08
การแก้ไขเบื้องต้น: จัดเจ้าหน้าที่เข้าตรวจสอบ เก็บขยะหน้าตะแกรง</desc>
    <time>2026-10-10T20:04:09.039Z</time>
    <type>iTIC</type>
  </wpt>
  <wpt lat="7.647849" lon="99.566072">
    <name>น้ำท่วมทางหลวง 403 ช่วงต้นม่วง - ตรัง (ผ่านได้)</name>
    <desc>น้ำท่วมผิวทาง ทางหลวงหมายเลข 403 ช่วงต้นม่วง - ตรัง กม.ที่ 110+800 - 111+300 ต.นาท่ามเหนือ อ.เมืองตรัง จ.ตรัง
สาเหตุ: เกิดเหตุฝนตกหนัก น้ำระบายไม่ทัน ทำให้น้ำท่วมผิวทาง รถเล็กผ่านได้
การแก้ไขเบื้องต้น: เจ้าหน้าที่หมวดทางหลวงห้วยยอด ได้ติดตั้งกรวย ป้ายเตือน ไฟกระพริบ พร้อมเจ้าหน้าที่ อำนวยความสะดวกปลอดภัยทางจราจร</desc>
    <time>2026-10-10T20:04:09.039Z</time>
    <type>iTIC</type>
  </wpt>
  <wpt lat="7.647849" lon="99.566072">
    <name>น้ำท่วมทางหลวง 403 ช่วงต้นม่วง - ตรัง (ผ่านได้)</name>
    <desc>น้ำท่วมผิวทาง ทางหลวงหมายเลข 403 ช่วงต้นม่วง - ตรัง กม.ที่ 110+800 - 111+200 ต.นาท่ามเหนือ อ.เมืองตรัง จ.ตรัง
สาเหตุ: เกิดเหตุฝนตกหนัก น้ำระบายไม่ทัน ทำให้น้ำท่วมผิวทาง รถเล็กผ่านได้
การแก้ไขเบื้องต้น: เจ้าหน้าที่หมวดทางหลวงห้วยยอด ได้ติดตั้งกรวย ป้ายเตือน ไฟกระพริบ พร้อมเจ้าหน้าที่ อำนวยความสะดวกปลอดภัยทางจราจร</desc>
    <time>2026-10-10T20:04:09.039Z</time>
    <type>iTIC</type>
  </wpt>
  <wpt lat="14.069260" lon="100.616071">
    <name>จัดสอบฯ ม.ธรรมศาสตร์(รังสิต) ถนนพหลโยธิน</name>
    <desc>วันที่ 9 - 11 ตุลาคม 2569 ที่มหาวิทยาลัยธรรมศาสตร์ ศูนย์รังสิต ถนนพหลโยธิน เป็นสถานที่จัดสอบ โปรดเผื่อเวลาในการเดินทาง

Cr. ศูนย์สอบธรรมศาสตร์</desc>
    <time>2026-10-10T20:04:09.039Z</time>
    <type>iTIC</type>
  </wpt>
  <wpt lat="14.101261" lon="100.961052">
    <name>น้ำท่วมทางหลวง 3369 ช่วงวัดอำภาศิริวงศ์ - คลอง16 (ผ่านได้)</name>
    <desc>น้ำท่วมขังผิวจราจรทล.3369 ทางหลวงหมายเลข 3369 ช่วงวัดอำภาศิริวงศ์ - คลอง16 กม.ที่ 0+050 - 0+300 ต.คลองใหญ่ อ.องครักษ์ จ.นครนายก
สาเหตุ: เนื่องจากเกิดฝนตกหนักติดต่อกันเป็นเวลานาน ทำให้เกิดน้ำขัผท่วมขังจราจร
การแก้ไขเบื้องต้น: หมวดทางหลวงองครักษ์ดำเนินการติดตั้งอุปกรณ์อำนวยความปลอดภัย</desc>
    <time>2026-10-10T20:04:09.039Z</time>
    <type>iTIC</type>
  </wpt>
  <wpt lat="13.961817" lon="100.903094">
    <name>น้ำท่วมทางหลวง 3312 ช่วงลำลูกกา - คลอง16 (ผ่านได้)</name>
    <desc>น้ำท่วมขังผิวจราจรทล.3312 ทางหลวงหมายเลข 3312 ช่วงลำลูกกา - คลอง16 กม.ที่ 32+800 - 33+300 ต.พืชอุดม อ.ลำลูกกา จ.ปทุมธานี
สาเหตุ: เนื่องจากเกิดฝนตกหนักติดต่อกันเป็นเวลานาน ทำให้เกิดน้ำท่วมขังผิวจราจร
การแก้ไขเบื้องต้น: หมวดทางหลวงองครักษ์ดำเนินการติดตั้งอุปกรณ์อำนวยความปลอดภัย</desc>
    <time>2026-10-10T20:04:09.040Z</time>
    <type>iTIC</type>
  </wpt>
  <wpt lat="13.997635" lon="100.960236">
    <name>น้ำท่วมทางหลวง 3369 ช่วงวัดอำภาศิริวงศ์ - คลอง16 (ผ่านได้)</name>
    <desc>น้ำท่วมขังผิวจราจรทล.3369 ทางหลวงหมายเลข 3369 ช่วงวัดอำภาศิริวงศ์ - คลอง16 กม.ที่ 12+000 - 14+600 ต.ชุมพล อ.องครักษ์ จ.นครนายก
สาเหตุ: เนื่องจากเกิดฝนตกหนักติดต่อกันเป็นเวลานาน ทำให้เกิดน้ำท่วมขังผิวจราจร
การแก้ไขเบื้องต้น: หมวดทางหลวงองครักษ์ดำเนินการติดตั้งอุปกรณ์อำนวยความปลอดภัย</desc>
    <time>2026-10-10T20:04:09.040Z</time>
    <type>iTIC</type>
  </wpt>
  <wpt lat="13.967724" lon="100.941396">
    <name>น้ำท่วมทางหลวง 3312 ช่วงลำลูกกา - คลอง16 (ผ่านได้)</name>
    <desc>น้ำท่วมขังผิวจราจรทล.3312 ทางหลวงหมายเลข 3312 ช่วงลำลูกกา - คลอง16 กม.ที่ 37+000 - 39+000 ต.ชุมพล อ.องครักษ์ จ.นครนายก
สาเหตุ: เนื่องจากเกิดฝนตกหนักติดต่อกันเป็นเวลานาน ทำให้เกิดน้ำท่วมขังผิวจราจร
การแก้ไขเบื้องต้น: หมวดทางหลวงองครักษ์ดำเนินการติดตั้งอุปกรณ์อำนวยความปลอดภัย</desc>
    <time>2026-10-10T20:04:09.040Z</time>
    <type>iTIC</type>
  </wpt>
  <wpt lat="14.147909" lon="100.986872">
    <name>น้ำท่วมทางหลวง 305 ช่วงองครักษ์ - นครนายก (ผ่านได้)</name>
    <desc>น้ำท่วมขังผิวจราจร ทางหลวงหมายเลข 305 ช่วงองครักษ์ - นครนายก กม.ที่ 47+300 - 47+800 ต.บางปลากด อ.องครักษ์ จ.นครนายก
สาเหตุ: ฝนตกหนักติดต่อกันเป็นเวลานานทำให่เกิดน้ำท่วมขัง ปริมาณน้ำรอการระบาย
การแก้ไขเบื้องต้น: อำนวยการจราจร</desc>
    <time>2026-10-10T20:04:09.040Z</time>
    <type>iTIC</type>
  </wpt>
  <wpt lat="14.125399" lon="100.994644">
    <name>น้ำท่วมทางหลวง 305 ช่วงองครักษ์ - นครนายก (ผ่านได้)</name>
    <desc>น้ำท่วมขังผิวจราจร ทางหลวงหมายเลข 305 ช่วงองครักษ์ - นครนายก กม.ที่ 44+500 - 46+600 ต.คลองใหญ่ อ.องครักษ์ จ.นครนายก
สาเหตุ: ฝนตกหนักติดต่อกันเป็นเวลานานทำให้เกิดน้ำท่วมขัง ปริมาณน้ำรอการระบาย
การแก้ไขเบื้องต้น: อำนวยการจราจร</desc>
    <time>2026-10-10T20:04:09.040Z</time>
    <type>iTIC</type>
  </wpt>
  <wpt lat="14.311660" lon="100.060549">
    <name>น้ำท่วมทางหลวง 3260 ช่วงสองพี่น้อง-มะขามล้ม (ผ่านได้)</name>
    <desc>รายงานน้ำท่วมทาง(โครงการก่อสร้างทางหลวง3260)สาย อ.สองพี่น้อง-สุุพรรณบุรี ตอน อ.สองพี่น้อง-บ.มะขามล้ม(สำนักก่อสร้างที่1) ทางหลวงหมายเลข 3260 ช่วงสองพี่น้อง-มะขามล้ม กม.ที่ 21+600 - 23+800 ต.วัดโบสถ์ อ.บางปลาม้า จ.สุพรรณบุรี
สาเหตุ: เกิดฝนตกในพื้นที่ และมีเอ่อจากทุ่งรับน้ำ คลองชลประทาน(วัดป่าเลไลย์)
การแก้ไขเบื้องต้น: ติดตั้งป้ายเตือน ปักหลักขาวแดง มีสัญญาณไฟกระพริบ และมีการปั้นคันดินป้องกันน้ำท่วมผิวทาง</desc>
    <time>2026-10-10T20:04:09.040Z</time>
    <type>iTIC</type>
  </wpt>
  <wpt lat="13.933967" lon="100.721369">
    <name>น้ำท่วมทางหลวง 3312 ช่วงลำลูกกา - คลอง16 (ผ่านได้)</name>
    <desc>น้ำท่วมขังผิวจราจรทล.3312 ทางหลวงหมายเลข 3312 ช่วงลำลูกกา - คลอง16 กม.ที่ 12+348 - 13+200 ต.บึงคำพร้อย อ.ลำลูกกา จ.ปทุมธานี
สาเหตุ: เนื่องจากเกิดฝนตกหนักติดต่อกันเป็นเวลานาน ทำให้เกิดน้ำขังบนผิวจราจร ปริมาณน้ำรอการระบาย
การแก้ไขเบื้องต้น: จัดเจ้าหน้าที่อำนวยความสะดวกและติดตั้งป้ายเตือน</desc>
    <time>2026-10-10T20:04:09.040Z</time>
    <type>iTIC</type>
  </wpt>
  <wpt lat="13.504619" lon="100.127287">
    <name>น้ำท่วมทางหลวง 35 ช่วงสะพานข้ามแม่น้ำท่าจีนฝั่งตะวันตก - นาโคก (ผ่านได้)</name>
    <desc>น้ำท่วมผิวจราจร ทางหลวงหมายเลข 35 ช่วงสะพานข้ามแม่น้ำท่าจีนฝั่งตะวันตก - นาโคก กม.ที่ 45+100 - 46+500 ต.กาหลง อ.เมืองสมุทรสาคร จ.สมุทรสาคร
สาเหตุ: ฝนตกหนักต่อเนื่อง
การแก้ไขเบื้องต้น:</desc>
    <time>2026-10-10T20:04:09.040Z</time>
    <type>iTIC</type>
  </wpt>
  <wpt lat="14.010550" lon="100.572736">
    <name>น้ำท่วมทางหลวง 3309 ช่วงบ้านกระแชง - บางพูน (ผ่านได้)</name>
    <desc>น้ำท่วมขัง ทล.3309 ทางหลวงหมายเลข 3309 ช่วงบ้านกระแชง - บางพูน กม.ที่ 37+900 - 38+300 ต.สวนพริกไทย อ.เมืองปทุมธานี จ.ปทุมธานี
สาเหตุ: ฝนตกหนัก ทำให้น้ำท่วมขัง1ช่องจราจร
การแก้ไขเบื้องต้น:</desc>
    <time>2026-10-10T20:04:09.040Z</time>
    <type>iTIC</type>
  </wpt>
  <wpt lat="13.517203" lon="100.162341">
    <name>น้ำท่วมทางหลวง 35 ช่วงสะพานข้ามแม่น้ำท่าจีนฝั่งตะวันตก - นาโคก (ผ่านได้)</name>
    <desc>น้ำท่วมผิวจราจร ทางหลวงหมายเลข 35 ช่วงสะพานข้ามแม่น้ำท่าจีนฝั่งตะวันตก - นาโคก กม.ที่ 41+000 - 44+300 ต.บางโทรัด อ.เมืองสมุทรสาคร จ.สมุทรสาคร
สาเหตุ: ฝนตกหนักต่อเนื่อง
การแก้ไขเบื้องต้น:</desc>
    <time>2026-10-10T20:04:09.040Z</time>
    <type>iTIC</type>
  </wpt>
  <wpt lat="13.517203" lon="100.162341">
    <name>น้ำท่วมทางหลวง 35 ช่วงสะพานข้ามแม่น้ำท่าจีนฝั่งตะวันตก - นาโคก (ผ่านได้)</name>
    <desc>น้ำท่วมผิวจราจร ทางหลวงหมายเลข 35 ช่วงสะพานข้ามแม่น้ำท่าจีนฝั่งตะวันตก - นาโคก กม.ที่ 41+000 - 44+300 ต.บางโทรัด อ.เมืองสมุทรสาคร จ.สมุทรสาคร
สาเหตุ: ฝนตกหนักต่อเนื่อง
การแก้ไขเบื้องต้น:</desc>
    <time>2026-10-10T20:04:09.040Z</time>
    <type>iTIC</type>
  </wpt>
  <wpt lat="13.517472" lon="100.163220">
    <name>น้ำท่วมทางหลวง 35 ช่วงสะพานข้ามแม่น้ำท่าจีนฝั่งตะวันตก - นาโคก (ผ่านได้)</name>
    <desc>น้ำท่วมผิวจราจร ทางหลวงหมายเลข 35 ช่วงสะพานข้ามแม่น้ำท่าจีนฝั่งตะวันตก - นาโคก กม.ที่ 41+100 - 44+300 ต.บางโทรัด อ.เมืองสมุทรสาคร จ.สมุทรสาคร
สาเหตุ: ฝนตกหนักต่อเนื่อง
การแก้ไขเบื้องต้น:</desc>
    <time>2026-10-10T20:04:09.040Z</time>
    <type>iTIC</type>
  </wpt>
  <wpt lat="14.191789" lon="100.641238">
    <name>น้ำท่วมทางหลวง 1 ช่วงต่างระดับบางปะอิน - หนองแค (ผ่านได้)</name>
    <desc>น้ำท่วมผิวจราจร ทางหลวงหมายเลข 1 ช่วงต่างระดับบางปะอิน - หนองแค กม.ที่ 55+900 - 56+000 ต.ลำไทร อ.วังน้อย จ.พระนครศรีอยุธยา
สาเหตุ: น้ำรอการระบาย
การแก้ไขเบื้องต้น:</desc>
    <time>2026-10-10T20:04:09.040Z</time>
    <type>iTIC</type>
  </wpt>
  <wpt lat="13.951341" lon="101.215286">
    <name>น้ำท่วมทางหลวง 3481 ช่วงบางขนาก - ปราจีนบุรี (ผ่านไม่ได้)</name>
    <desc>น้ำท่วม ทล.3481 กม.36+650-กม.39+000 ทางหลวงหมายเลข 3481 ช่วงบางขนาก - ปราจีนบุรี กม.ที่ 36+650 - 39+000 ต.บางเตย อ.บ้านสร้าง จ.ปราจีนบุรี
สาเหตุ: เนื่องจากฝนตกหนักทำให้น้ำล้นตลิ่งทำให่เกิดน้ำท่วมบนท้องถนนรถเล็กไม่สามารถผ่านได้
การแก้ไขเบื้องต้น: หมวดทางหลวงบ้านสร้างอำนวยความสะดวกแก่ประชาชน (เบอร์ติดต่อประสานงาน 0815351419 นายบุญเรือง สุขหอม หัวหน้าหมวดทางหลวงบ้านสร้าง)</desc>
    <time>2026-10-10T20:04:09.040Z</time>
    <type>iTIC</type>
  </wpt>
  <wpt lat="13.659561" lon="101.151310">
    <name>น้ำท่วมทางหลวง 304 ช่วงฉะเชิงเทรา - เสม็ดเหนือ (ผ่านได้)</name>
    <desc>น้ำท่วมผิวจราจร ทางหลวงหมายเลข 304 ช่วงฉะเชิงเทรา - เสม็ดเหนือ กม.ที่ 79+500 - 82+700 ต.เสม็ดใต้ อ.บางคล้า จ.ฉะเชิงเทรา
สาเหตุ: เนื่องจากเกิดฝนตกหนักทำให้น้ำท่วมผิวจราจรทางขนานด้านขวาทาง
การแก้ไขเบื้องต้น: เจ้าหน้าที่หมวดทางหลวงสิบเอ็ดศอกได้อำนวยความสะดวกและความปลอดภัยเรียบร้อย</desc>
    <time>2026-10-10T20:04:09.040Z</time>
    <type>iTIC</type>
  </wpt>
  <wpt lat="14.415057" lon="100.441786">
    <name>น้ำท่วมทางหลวง 3412 ช่วงอยุธยา - บางบาล (ผ่านได้)</name>
    <desc>น้ำท่วม ทางหลวงหมายเลข 3412 ช่วงอยุธยา - บางบาล กม.ที่ 16+798 - 16+818 ต.บางหลวงโดด อ.บางบาล จ.พระนครศรีอยุธยา
สาเหตุ: ระดับน้ำ ในแม่น้ำน้อยเพิ่มสูงขึ้น
การแก้ไขเบื้องต้น: มีเจ้าหน้าที่คอยสังเกตการณ์ระดับน้ำและเฝ้าระวัง</desc>
    <time>2026-10-10T20:04:09.040Z</time>
    <type>iTIC</type>
  </wpt>
  <wpt lat="13.605104" lon="101.116799">
    <name>น้ำท่วมทางหลวง 3304 ช่วงบ้านโพธิ์ - แปลงยาว (ผ่านได้)</name>
    <desc>น้ำท่วมผิวจราจร ทางหลวงหมายเลข 3304 ช่วงบ้านโพธิ์ - แปลงยาว กม.ที่ 2+600 - 3+200 ต.สิบเอ็ดศอก อ.บ้านโพธิ์ จ.ฉะเชิงเทรา
สาเหตุ: เนื่องจากฝนตกหนักทำให้น้ำท่วมผิวจราจรทั้งด้านซ้ายทางและขวาทาง
การแก้ไขเบื้องต้น: เจ้าหน้าที่หมวดทางสิบเอ็ดศอกได้อำนวยความสะดวกและความปลอดภัยเรียบร้อย</desc>
    <time>2026-10-10T20:04:09.040Z</time>
    <type>iTIC</type>
  </wpt>
  <wpt lat="14.117919" lon="100.992046">
    <name>น้ำท่วมทางหลวง 305 ช่วงคลอง14 - องครักษ์ (ผ่านได้)</name>
    <desc>น้ำท่วมขังผิวจราจร ทล.305 ทางหลวงหมายเลข 305 ช่วงคลอง14 - องครักษ์ กม.ที่ 43+200 - 43+300 ต.คลองใหญ่ อ.องครักษ์ จ.นครนายก
สาเหตุ: เนื่องจากเกิดฝนตกหนักติดต่อกันอย่างต่อเนื่อง ทำให้เกิดน้ำท่วมขังผิวจราจร
การแก้ไขเบื้องต้น: เจ้าหน้าที่หมวดทางหลวงองครักษ์ ติดตั้งอุปกรณ์อำนวยความปลอดภัย</desc>
    <time>2026-10-10T20:04:09.040Z</time>
    <type>iTIC</type>
  </wpt>
  <wpt lat="13.871893" lon="101.147201">
    <name>น้ำท่วมทางหลวง 3481 ช่วงบางขนาก - ปราจีนบุรี (ผ่านไม่ได้)</name>
    <desc>น้ำท่วม ทล.3481 กม.26+000-27+500 ทางหลวงหมายเลข 3481 ช่วงบางขนาก - ปราจีนบุรี กม.ที่ 26+000 - 27+500 ต.บางแตน อ.บ้านสร้าง จ.ปราจีนบุรี
สาเหตุ: เนื่องจากน้ำล้นตลิ่งทำใหเกิด้น้ำท่วมบนท้องถนน รถเล็กไม่สามารถผ่านได้
การแก้ไขเบื้องต้น: หมวดทางหลวงบ้านสร้างอำนวยความสะดวกแก่ประชาชน (เบอร์ติดต่อประสานงาน 0815351419 นายบุญเรือง สุขหอม หัวหน้าหมวดทางหลวงบ้านสร้าง)</desc>
    <time>2026-10-10T20:04:09.040Z</time>
    <type>iTIC</type>
  </wpt>
  <wpt lat="14.111386" lon="100.979760">
    <name>น้ำท่วมทางหลวง 305 ช่วงคลอง14 - องครักษ์ (ผ่านได้)</name>
    <desc>น้ำท่วมขังผิวจราจรทล.305 ทางหลวงหมายเลข 305 ช่วงคลอง14 - องครักษ์ กม.ที่ 41+700 - 41+900 ต.คลองใหญ่ อ.องครักษ์ จ.นครนายก
สาเหตุ: เนื่องจากเกิดฝนตกหนักติดต่อกันเป็นเวลานาน ทำให้เกิดน้ำขังบนผิวจราจร ปริมาณน้ำรอการระบาย
การแก้ไขเบื้องต้น: ดำเนินการกัวางแนวกั้นกระสอบทรายและติดตั้งป้ายเตือน</desc>
    <time>2026-10-10T20:04:09.040Z</time>
    <type>iTIC</type>
  </wpt>
  <wpt lat="13.662626" lon="101.109688">
    <name>น้ำท่วมทางหลวง 304 ช่วงฉะเชิงเทรา - เสม็ดเหนือ (ผ่านได้)</name>
    <desc>น้ำท่วมผิวจราจร ทางหลวงหมายเลข 304 ช่วงฉะเชิงเทรา - เสม็ดเหนือ กม.ที่ 77+100 - 77+300 ต.บางตีนเป็ด อ.เมืองฉะเชิงเทรา จ.ฉะเชิงเทรา
สาเหตุ: เนื่องจากเกิดฝนตกหนักทำให้น้ำท่วมผิวจราจรทางขนานด้านซ้ายทาง
การแก้ไขเบื้องต้น: เจ้าหน้าที่หมวดทางหลวงสิบเอ็ดศอกได้อำนวยความสะดวกและความปลอดภัยเรียบร้อย</desc>
    <time>2026-10-10T20:04:09.041Z</time>
    <type>iTIC</type>
  </wpt>
  <wpt lat="13.660653" lon="101.160685">
    <name>น้ำท่วม ต.เสม็ดใต้</name>
    <desc>ต.เสม็ดใต้ อ.บางคล้า จ.ฉะเชิงเทรา รายงานโดย AumAiim</desc>
    <time>2026-10-10T20:04:09.041Z</time>
    <type>iTIC</type>
  </wpt>
  <wpt lat="13.650526" lon="101.181513">
    <name>น้ำท่วม ต.เสม็ดใต้</name>
    <desc>ต.เสม็ดใต้ อ.บางคล้า จ.ฉะเชิงเทรา รายงานโดย AumAiim</desc>
    <time>2026-10-10T20:04:09.041Z</time>
    <type>iTIC</type>
  </wpt>
  <wpt lat="13.649796" lon="101.181692">
    <name>น้ำท่วม ต.เสม็ดใต้</name>
    <desc>ต.เสม็ดใต้ อ.บางคล้า จ.ฉะเชิงเทรา รายงานโดย AumAiim</desc>
    <time>2026-10-10T20:04:09.041Z</time>
    <type>iTIC</type>
  </wpt>
  <wpt lat="13.649234" lon="101.181607">
    <name>น้ำท่วม ต.เสม็ดใต้</name>
    <desc>ต.เสม็ดใต้ อ.บางคล้า จ.ฉะเชิงเทรา รายงานโดย AumAiim</desc>
    <time>2026-10-10T20:04:09.041Z</time>
    <type>iTIC</type>
  </wpt>
  <wpt lat="13.649925" lon="101.181230">
    <name>น้ำท่วม ต.เสม็ดใต้</name>
    <desc>ต.เสม็ดใต้ อ.บางคล้า จ.ฉะเชิงเทรา รายงานโดย AumAiim</desc>
    <time>2026-10-10T20:04:09.041Z</time>
    <type>iTIC</type>
  </wpt>
  <wpt lat="13.650190" lon="101.181609">
    <name>น้ำท่วม ต.เสม็ดใต้</name>
    <desc>ต.เสม็ดใต้ อ.บางคล้า จ.ฉะเชิงเทรา รายงานโดย AumAiim</desc>
    <time>2026-10-10T20:04:09.041Z</time>
    <type>iTIC</type>
  </wpt>
  <wpt lat="13.985664" lon="101.231229">
    <name>น้ำท่วมทางหลวง 3076 ช่วงบางหอย - วังขอน (ผ่านไม่ได้)</name>
    <desc>น้ำท่วม ทล.3076 กม.27+000-กม.29+000 ทางหลวงหมายเลข 3076 ช่วงบางหอย - วังขอน กม.ที่ 27+000 - 29+000 ต.บ้านสร้าง อ.บ้านสร้าง จ.ปราจีนบุรี
สาเหตุ: เนื่องจากฝนตกหนักทำให้น้ำล้นตลิ่งทำให่เกิดน้ำท่วมบนท้องถนน รถเล็กไม่สามารถผ่านได้
การแก้ไขเบื้องต้น: หมวดทางหลวงบ้านสร้างอำนวยความสะดวกแก่ประชาชน (เบอร์ติดต่อประสานงาน 0815351419 นายบุญเรือง สุขหอม หัวหน้าหมวดทางหลวงบ้านสร้าง)</desc>
    <time>2026-10-10T20:04:09.041Z</time>
    <type>iTIC</type>
  </wpt>
  <wpt lat="13.999039" lon="101.229844">
    <name>น้ำท่วมทางหลวง 3481 ช่วงบางขนาก - ปราจีนบุรี (ผ่านได้)</name>
    <desc>น้ำท่วม ทล.3481 กม.44+000-กม.44+500 ทางหลวงหมายเลข 3481 ช่วงบางขนาก - ปราจีนบุรี กม.ที่ 44+000 - 44+500 ต.บ้านสร้าง อ.บ้านสร้าง จ.ปราจีนบุรี
สาเหตุ: เนื่องจากฝนตกหนักทำให้น้ำล้นตลิ่งทำให่เกิดน้ำท่วมบนท้องถนน รถเล็กไม่สามารถผ่านทางได้
การแก้ไขเบื้องต้น: หมวดทางหลวงบ้านสร้างอำนวยความสะดวกแก่ประชาชน ผู้ประสานงาน  นายบุญเรือง สุขหอม หัวหน้าหมวดทางหลวงบ้านสร้าง</desc>
    <time>2026-10-10T20:04:09.041Z</time>
    <type>iTIC</type>
  </wpt>
  <wpt lat="13.949182" lon="100.798687">
    <name>น้ำท่วมทางหลวง 3312 ช่วงลำลูกกา - คลอง16 (ผ่านได้)</name>
    <desc>น้ำท่วมขังผิวจราจรทล.3312 ทางหลวงหมายเลข 3312 ช่วงลำลูกกา - คลอง16 กม.ที่ 19+100 - 19+200 ต.บึงทองหลาง อ.ลำลูกกา จ.ปทุมธานี
สาเหตุ: เนื่องจากเกิดฝนตกหนักติดต่อกันอย่างต่อเนื่อง ทำให้เกิดน้ำท่วมขังผิวจราจร
การแก้ไขเบื้องต้น: เจ้าหน้าที่หมวดทางหลวงองครักษ์ อำนวยความสะดวกการจราจร</desc>
    <time>2026-10-10T20:04:09.041Z</time>
    <type>iTIC</type>
  </wpt>
  <wpt lat="14.023899" lon="100.960843">
    <name>น้ำท่วมทางหลวง 3369 ช่วงวัดอำภาศิริวงศ์ - คลอง16 (ผ่านได้)</name>
    <desc>น้ำท่วมขังผิวจราจร ทล.3369 ทางหลวงหมายเลข 3369 ช่วงวัดอำภาศิริวงศ์ - คลอง16 กม.ที่ 5+000 - 8+200 ต.บึงศาล อ.องครักษ์ จ.นครนายก
สาเหตุ: เนื่องจากเกิดฝนตกหนักติดต่อกันอย่างต่อเนื่อง ทำให้เกิดน้ำท่วมขังผิวจราจร รถเล็กไม่สามารถผ่านได้
การแก้ไขเบื้องต้น: เจ้าหน้าที่หมวดทางหลวงองครักษ์ อำนวยความสะดวกการจราจร</desc>
    <time>2026-10-10T20:04:09.041Z</time>
    <type>iTIC</type>
  </wpt>
  <wpt lat="14.359760" lon="100.414457">
    <name>น้ำท่วมทางหลวง 3454 ช่วงหน้าโคก - เสนา (ผ่านได้)</name>
    <desc>น้ำท่วมผิวจราจร ทางหลวงหมายเลข 3454 ช่วงหน้าโคก - เสนา กม.ที่ 106+800 - 107+000 ต.บ้านโพธิ์ อ.เสนา จ.พระนครศรีอยุธยา
สาเหตุ: เนื่องจากมีฝนตกต่อเนื่อง และมีการระบายน้ำจากแม่น้ำน้อย ที่มีปริมาณน้ํามากขึ้นส่งผลให้ระดับน้ําเพิ่มสูงขึ้นจนอยู่ในระดับที่สูงกว่าผิวจราจร
การแก้ไขเบื้องต้น: 1.ติดตั้งป้ายเตือนอำนวยความสะดวกในการจราจร
2.ปั้นคันวัสดุตลอดแนวน้ำท่วมผิวจราจร
3.วางแนวกระสอบทรายป้องกันน้ำเข้าพื้นที่
4. สูบน้ําในพื้นที่ เพื่อระบายน้ําในผิวจราจร</desc>
    <time>2026-10-10T20:04:09.041Z</time>
    <type>iTIC</type>
  </wpt>
  <wpt lat="14.019587" lon="101.203915">
    <name>น้ำท่วมทางหลวง 3076 ช่วงบางหอย - วังขอน (ผ่านได้)</name>
    <desc>น้ำท่วม ทล.3076 กม.22+500-กม.22+700 ทางหลวงหมายเลข 3076 ช่วงบางหอย - วังขอน กม.ที่ 22+500 - 22+700 ต.บ้านสร้าง อ.บ้านสร้าง จ.ปราจีนบุรี
สาเหตุ: เนื่องจากฝนตกหนักทำให้น้ำล้นตลิ่งทำให่เกิดน้ำท่วมบนท้องถนน
การแก้ไขเบื้องต้น: หมวดทางหลวงบ้านสร้างอำนวยความสะดวกแก่ประชาชน ผู้ประสานงาน  นายบุญเรือง สุขหอม  หัวหน้าหมวดทางหลวงบ้านสร้าง</desc>
    <time>2026-10-10T20:04:09.041Z</time>
    <type>iTIC</type>
  </wpt>
  <wpt lat="14.049820" lon="101.356733">
    <name>น้ำท่วมทางหลวง 319 ช่วงปราจีนบุรี - ไผ่ชะเลือด (ผ่านได้)</name>
    <desc>น้ำท่วม ทล.319 กม.12+250 - กม.14+000 ทางหลวงหมายเลข 319 ช่วงปราจีนบุรี - ไผ่ชะเลือด กม.ที่ 12+250 - 14+000 ต.รอบเมือง อ.เมืองปราจีนบุรี จ.ปราจีนบุรี
สาเหตุ: เนื่องจากฝนตกหนักทำให้น้ำล้นตลิ่งทำให่เกิดน้ำท่วมบนท้องถนนรถเล็กไม่สามารถผ่านได้
การแก้ไขเบื้องต้น:  หมวดทางหลวงบ้านสร้างอำนวยความสะดวกแก่ประชาชน ผู้ประสานงาน  นายบุญเรือง สุขหอม หัวหน้าหมวดทางหลวงบ้านสร้าง</desc>
    <time>2026-10-10T20:04:09.041Z</time>
    <type>iTIC</type>
  </wpt>
  <wpt lat="14.070865" lon="101.353502">
    <name>น้ำท่วมทางหลวง 319 ช่วงหนองชะอม - ปราจีนบุรี (ผ่านได้)</name>
    <desc>น้ำท่วม ทล.319 ระหว่างกม.9+400 - กม.10+400 ทางหลวงหมายเลข 319 ช่วงหนองชะอม - ปราจีนบุรี กม.ที่ 9+400 - 10+400 ต.บ้านพระ อ.เมืองปราจีนบุรี จ.ปราจีนบุรี
สาเหตุ: เนื่องจากมีฝนตกหนัก เป็นระยะเวลาติดต่อกัน
การแก้ไขเบื้องต้น: ติดตั้งป้ายเตือนน้ำท่วม และ เฝ้าระวังเพื่ออำนวยความปลอดภัยแก่ผู้ใช้เส้นทาง</desc>
    <time>2026-10-10T20:04:09.041Z</time>
    <type>iTIC</type>
  </wpt>
  <wpt lat="13.892242" lon="100.632463">
    <name>น้ำท่วม แขวงคลองถนน</name>
    <desc>แขวงคลองถนน เขตสายไหม กรุงเทพมหานคร
บ้านเอื้อฯคลองถนนซอยเพิ่มสิน24/1ถนนเพิ่มสิน
น้ำท่วมขังมาสามวันแล้ว นังไม่มีหน่วยงานมาช่วยเหลือเลย รายงานโดย Osh</desc>
    <time>2026-10-10T20:04:09.041Z</time>
    <type>iTIC</type>
  </wpt>
  <wpt lat="14.041548" lon="101.337335">
    <name>น้ำท่วมทางหลวง 3481 ช่วงบางขนาก - ปราจีนบุรี (ผ่านได้)</name>
    <desc>น้ำท่วม ทล.3481 กม.57+800-กม.63+951 ทางหลวงหมายเลข 3481 ช่วงบางขนาก - ปราจีนบุรี กม.ที่ 57+800 - 63+951 ต.บางเดชะ อ.เมืองปราจีนบุรี จ.ปราจีนบุรี
สาเหตุ: เนื่องจากฝนตกหนักทำให้น้ำล้นตลิ่งทำให่เกิดน้ำท่วมบนท้องถนนรถเล็กไม่สามารถผ่านได้
การแก้ไขเบื้องต้น: หมวดทางหลวงบ้านสร้างอำนวยความสะดวกแก่ประชาชน ผู้ประสานงาน  นายบุญเรือง สุขหอม หัวหน้าหมวดทางหลวงบ้านสร้าง</desc>
    <time>2026-10-10T20:04:09.041Z</time>
    <type>iTIC</type>
  </wpt>
  <wpt lat="14.040482" lon="101.199592">
    <name>น้ำท่วมทางหลวง 3076 ช่วงนครนายก - บางหอย (ผ่านได้)</name>
    <desc>น้ำท่วมผิวจราจร ทางหลวงหมายเลข 3076 ช่วงนครนายก - บางหอย กม.ที่ 19+200 - 20+800 ต.ศรีจุฬา อ.เมืองนครนายก จ.นครนายก
สาเหตุ: ฝนตกหนักติดต่อกันเป็นเวลานานทำให่เกิดน้ำท่วมขัง ปริมาณน้ำรอการระบาย
การแก้ไขเบื้องต้น: อำนวยการจราจร</desc>
    <time>2026-10-10T20:04:09.041Z</time>
    <type>iTIC</type>
  </wpt>
  <wpt lat="14.012053" lon="100.960567">
    <name>น้ำท่วมทางหลวง 3369 ช่วงวัดอำภาศิริวงศ์ - คลอง16 (ผ่านได้)</name>
    <desc>น้ำท่วมขังผิวจราจรทล.3369 ทางหลวงหมายเลข 3369 ช่วงวัดอำภาศิริวงศ์ - คลอง16 กม.ที่ 9+000 - 12+000 ต.ชุมพล อ.องครักษ์ จ.นครนายก
สาเหตุ: เนื่องจากเกิดฝนตกหนักติดต่อกันเป็นเวลานาน ทำให้เกิดน้ำขังบนผิวจราจร ปริมาณน้ำรอการระบาย
การแก้ไขเบื้องต้น: จัดเจ้าหน้าที่อำนวยความสะดวกและติดตั้งป้ายเตือน</desc>
    <time>2026-10-10T20:04:09.041Z</time>
    <type>iTIC</type>
  </wpt>
  <wpt lat="13.996746" lon="100.671913">
    <name>น้ำท่วมทางหลวง 305 ช่วงต่างระดับรังสิต - วัดนาบุญ (ผ่านได้)</name>
    <desc>น้ำท่วมขังผิวจราจรรอการระบาย ทางหลวงหมายเลข 305 ช่วงต่างระดับรังสิต - วัดนาบุญ กม.ที่ 6+100 - 6+300 ต.บึงยี่โถ อ.ธัญบุรี จ.ปทุมธานี
สาเหตุ: ฝนตกหนักในพื้นที่/น้ำในคลองสาธารณะหนุนสูง
การแก้ไขเบื้องต้น: เก็บขยะที่กีดขวางทางระบายน้ำ</desc>
    <time>2026-10-10T20:04:09.041Z</time>
    <type>iTIC</type>
  </wpt>
  <wpt lat="13.999833" lon="100.685970">
    <name>น้ำท่วมทางหลวง 305 ช่วงต่างระดับรังสิต - วัดนาบุญ (ผ่านได้)</name>
    <desc>น้ำท่วมขังผิวจราจรรอการระบาย ทางหลวงหมายเลข 305 ช่วงต่างระดับรังสิต - วัดนาบุญ กม.ที่ 7+500 - 7+800 ต.บึงยี่โถ อ.ธัญบุรี จ.ปทุมธานี
สาเหตุ: ฝนตกหนังในพื้นที่/น้ำในคลองสาธารณะหนุนสูง
การแก้ไขเบื้องต้น: เก็บขยะที่กีดขวางทางระบายน้ำ</desc>
    <time>2026-10-10T20:04:09.041Z</time>
    <type>iTIC</type>
  </wpt>
  <wpt lat="14.057362" lon="101.395794">
    <name>น้ำท่วมทางหลวง 3452 ช่วงดงพระราม - ห้วยขื่อ (ผ่านได้)</name>
    <desc>น้ำท่วม ทล.3452 ระหว่างกม.1+490 - 7+764 ทางหลวงหมายเลข 3452 ช่วงดงพระราม - ห้วยขื่อ กม.ที่ 1+490 - 7+764 ต.บางบริบูรณ์ อ.เมืองปราจีนบุรี จ.ปราจีนบุรี
สาเหตุ: เนื่องจากมีฝนตกหนัก เป็นระยะเวลาติดต่อกัน
การแก้ไขเบื้องต้น: ติดตั้งป้ายเตือนน้ำท่วม เฝ้าระวังเพื่ออำนวยความปลอดภัยแก่ผู้ใช้เส้นทาง</desc>
    <time>2026-10-10T20:04:09.041Z</time>
    <type>iTIC</type>
  </wpt>
  <wpt lat="13.978276" lon="101.519479">
    <name>น้ำท่วมทางหลวง 3078 ช่วงระเบาะไผ่ - ประจันตคาม (ผ่านไม่ได้)</name>
    <desc>น้ำท่วม 3078 กม.15+897 - กม.26+887 ทางหลวงหมายเลข 3078 ช่วงระเบาะไผ่ - ประจันตคาม กม.ที่ 15+897 - 26+887 ต.บ้านทาม อ.ศรีมหาโพธิ จ.ปราจีนบุรี
สาเหตุ: เนื่องจากมีฝนตกต่อเนื่องเป็นเวลาหลายวัน
การแก้ไขเบื้องต้น: เจ้าหน้าที่หมวดทางหลวงปราจีนบุรีนำป้ายเตือนน้ำท่วมและปักหลักขาวแดงเข้าอำนวยความสะดวกและปลอดภัยแก่ประชาชน</desc>
    <time>2026-10-10T20:04:09.041Z</time>
    <type>iTIC</type>
  </wpt>
  <wpt lat="13.978276" lon="101.519479">
    <name>น้ำท่วมทางหลวง 3078 ช่วงระเบาะไผ่ - ประจันตคาม (ผ่านไม่ได้)</name>
    <desc>น้ำท่วม 3078 กม.15+897 - กม.26+887 ทางหลวงหมายเลข 3078 ช่วงระเบาะไผ่ - ประจันตคาม กม.ที่ 15+897 - 26+887 ต.บ้านทาม อ.ศรีมหาโพธิ จ.ปราจีนบุรี
สาเหตุ: เนื่องจากมีฝนตกต่อเนื่องเป็นเวลาหลายวัน
การแก้ไขเบื้องต้น: เจ้าหน้าที่หมวดทางหลวงปราจีนบุรีนำป้ายเตือนน้ำท่วมและปักหลักขาวแดงเข้าอำนวยความสะดวกและปลอดภัยแก่ประชาชน</desc>
    <time>2026-10-10T20:04:09.041Z</time>
    <type>iTIC</type>
  </wpt>
  <wpt lat="13.724859" lon="101.256810">
    <name>น้ำท่วมทางหลวง 3378 ช่วงบางคล้า - พนมสารคาม (ผ่านได้)</name>
    <desc>น้ำท่วมผิวจราจร ทางหลวงหมายเลข 3378 ช่วงบางคล้า - พนมสารคาม กม.ที่ 0+000 - 14+424 ต.เมืองใหม่ อ.ราชสาส์น จ.ฉะเชิงเทรา
สาเหตุ: ฝนตกตลอดทั้งวันทำให้น้ำท่วมผิวจราจร
การแก้ไขเบื้องต้น: เจ้าหน้าที่หมวดทางหลวงบางคล้าอำนวยความสะดวก ,เจ้าหน้างานสารสนเทศ</desc>
    <time>2026-10-10T20:04:09.041Z</time>
    <type>iTIC</type>
  </wpt>
  <wpt lat="12.640668" lon="101.500053">
    <name>น้ำท่วมทางหลวง 3145 ช่วงบ้านเพ - ท่าเรือแกลง (ผ่านไม่ได้)</name>
    <desc>น้ำท่วม3145กม.9 ทางหลวงหมายเลข 3145 ช่วงบ้านเพ - ท่าเรือแกลง กม.ที่ 9+300 - 9+500 ต.แกลง อ.เมืองระยอง จ.ระยอง
สาเหตุ: ฝนตกต่อเนื่อง
การแก้ไขเบื้องต้น: อำนวยความสะดวกและการจราจร</desc>
    <time>2026-10-10T20:04:09.041Z</time>
    <type>iTIC</type>
  </wpt>
  <wpt lat="14.737885" lon="99.335203">
    <name>น้ำท่วมทางหลวง 3480 ช่วงปลักประดู่ - ถ้ำธารลอด (ผ่านไม่ได้)</name>
    <desc>น้ำกัดเซาะคอสะพานชำรุด ทางหลวงหมายเลข 3480 ช่วงปลักประดู่ - ถ้ำธารลอด กม.ที่ 30+109 - 30+121 ต.สมเด็จเจริญ อ.หนองปรือ จ.กาญจนบุรี
สาเหตุ: เนื่องจากฝนตกหนักในพื้นที่ น้ำป่าไหลลาก
การแก้ไขเบื้องต้น: เจ้าหน้าที่หมวดทางหลวงได้ดำเนินการติดตั้งแบริเออร์ ป้ายเตือน กั้นแนวเปลี่ยนทิศทางน้ำ และ ปิดการจราจรในจุดดังกล่าว</desc>
    <time>2026-10-10T20:04:09.041Z</time>
    <type>iTIC</type>
  </wpt>
  <wpt lat="14.737885" lon="99.335203">
    <name>น้ำท่วมทางหลวง 3480 ช่วงปลักประดู่ - ถ้ำธารลอด (ผ่านไม่ได้)</name>
    <desc>น้ำกัดเซาะคอสะพานชำรุด ทางหลวงหมายเลข 3480 ช่วงปลักประดู่ - ถ้ำธารลอด กม.ที่ 30+109 - 30+121 ต.สมเด็จเจริญ อ.หนองปรือ จ.กาญจนบุรี
สาเหตุ: เนื่องจากฝนตกหนักในพื้นที่ น้ำป่าไหลลาก
การแก้ไขเบื้องต้น: เจ้าหน้าที่หมวดทางหลวงได้ดำเนินการติดตั้งแบริเออร์ ป้ายเตือน กั้นแนวเปลี่ยนทิศทางน้ำ และ ปิดการจราจรในจุดดังกล่าว</desc>
    <time>2026-10-10T20:04:09.041Z</time>
    <type>iTIC</type>
  </wpt>
  <wpt lat="14.040722" lon="100.961008">
    <name>น้ำท่วมทางหลวง 3369 ช่วงวัดอำภาศิริวงศ์ - คลอง16 (ผ่านได้)</name>
    <desc>น้ำท่วมขังผิวจราจรทล.3369 ทางหลวงหมายเลข 3369 ช่วงวัดอำภาศิริวงศ์ - คลอง16 กม.ที่ 8+300 - 8+900 ต.บึงศาล อ.องครักษ์ จ.นครนายก
สาเหตุ: เนื่องจากเกิดฝนตกหนักติดต่อกันอย่างต่อเนื่อง น้ำระบายไม่ทัน ทำให้เกิดน้ำท่วมขังผิวจราจร
การแก้ไขเบื้องต้น: เจ้าหน้าที่หมวดทางหลวงองครักษ์ อำนวยความสะดวกการจราจร</desc>
    <time>2026-10-10T20:04:09.041Z</time>
    <type>iTIC</type>
  </wpt>
  <wpt lat="14.054539" lon="101.394430">
    <name>น้ำท่วมทางหลวง 3079 ช่วงปราจีนบุรี - ศรีมหาโพธิ (ผ่านไม่ได้)</name>
    <desc>น้ำท่วม ทล 3079 กม.2+538 - กม.8+400 ทางหลวงหมายเลข 3079 ช่วงปราจีนบุรี - ศรีมหาโพธิ กม.ที่ 2+538 - 8+400 ต.ท่างาม อ.เมืองปราจีนบุรี จ.ปราจีนบุรี
สาเหตุ: เนื่องจากมีฝนตกหนักต่อเนื่องเป็นเวลาหลายวัน
การแก้ไขเบื้องต้น: เจ้าหน้าที่หมวดทางหลวงปราจีนบุรีนำป้ายเตือนน้ำท่วมและปักหลักขาวแดง อำนวยความสะดวกและปลอดภัยแก่ประชาชน</desc>
    <time>2026-10-10T20:04:09.041Z</time>
    <type>iTIC</type>
  </wpt>
  <wpt lat="14.054539" lon="101.394430">
    <name>น้ำท่วมทางหลวง 3079 ช่วงปราจีนบุรี - ศรีมหาโพธิ (ผ่านไม่ได้)</name>
    <desc>น้ำท่วม ทล 3079 กม.2+538 - กม.8+400 ทางหลวงหมายเลข 3079 ช่วงปราจีนบุรี - ศรีมหาโพธิ กม.ที่ 2+538 - 8+400 ต.ท่างาม อ.เมืองปราจีนบุรี จ.ปราจีนบุรี
สาเหตุ: เนื่องจากมีฝนตกหนักต่อเนื่องเป็นเวลาหลายวัน
การแก้ไขเบื้องต้น: เจ้าหน้าที่หมวดทางหลวงปราจีนบุรีนำป้ายเตือนน้ำท่วมและปักหลักขาวแดง อำนวยความสะดวกและปลอดภัยแก่ประชาชน</desc>
    <time>2026-10-10T20:04:09.041Z</time>
    <type>iTIC</type>
  </wpt>
  <wpt lat="13.992341" lon="101.444442">
    <name>น้ำท่วมทางหลวง 3079 ช่วงปราจีนบุรี - ศรีมหาโพธิ (ผ่านไม่ได้)</name>
    <desc>น้ำท่วม ทล 3079 กม.8+400 - กม.17+500 ทางหลวงหมายเลข 3079 ช่วงปราจีนบุรี - ศรีมหาโพธิ กม.ที่ 8+400 - 17+500 ต.หาดยาง อ.ศรีมหาโพธิ จ.ปราจีนบุรี
สาเหตุ: เนื่องจากมีฝนตกหนักต่อเนื่องหลายวัน
การแก้ไขเบื้องต้น: เจ้าหน้าที่หมวดทางหลวงปราจีนบุรีนำป้ายเตือนน้ำท่วมพร้อมป้ายปิดทางและปักหลักขาวแดงเข้าอำนวยความสะดวกและปลอดภัยแก่ประชาชน</desc>
    <time>2026-10-10T20:04:09.041Z</time>
    <type>iTIC</type>
  </wpt>
  <wpt lat="13.992341" lon="101.444442">
    <name>น้ำท่วมทางหลวง 3079 ช่วงปราจีนบุรี - ศรีมหาโพธิ (ผ่านไม่ได้)</name>
    <desc>น้ำท่วม ทล 3079 กม.8+400 - กม.17+500 ทางหลวงหมายเลข 3079 ช่วงปราจีนบุรี - ศรีมหาโพธิ กม.ที่ 8+400 - 17+500 ต.หาดยาง อ.ศรีมหาโพธิ จ.ปราจีนบุรี
สาเหตุ: เนื่องจากมีฝนตกหนักต่อเนื่องหลายวัน
การแก้ไขเบื้องต้น: เจ้าหน้าที่หมวดทางหลวงปราจีนบุรีนำป้ายเตือนน้ำท่วมพร้อมป้ายปิดทางและปักหลักขาวแดงเข้าอำนวยความสะดวกและปลอดภัยแก่ประชาชน</desc>
    <time>2026-10-10T20:04:09.041Z</time>
    <type>iTIC</type>
  </wpt>
  <wpt lat="14.166332" lon="100.585168">
    <name>น้ำท่วมทางหลวง 9 ช่วงต่างระดับเชียงรากน้อย - ต่างระดับบางปะอิน (ผ่านได้)</name>
    <desc>น้ำท่วขังผิวทางจราจรรอการระบาย ทางหลวงหมายเลข 9 ช่วงต่างระดับเชียงรากน้อย - ต่างระดับบางปะอิน กม.ที่ 80+000 - 81+000 ต.เชียงรากน้อย อ.บางปะอิน จ.พระนครศรีอยุธยา
สาเหตุ: 
การแก้ไขเบื้องต้น:</desc>
    <time>2026-10-10T20:04:09.041Z</time>
    <type>iTIC</type>
  </wpt>
  <wpt lat="14.072829" lon="101.478834">
    <name>น้ำท่วมทางหลวง 3452 ช่วงดงพระราม - ห้วยขื่อ (ผ่านได้)</name>
    <desc>น้ำท่วม ทล.3452 กม.10+900 - 15+857 ทางหลวงหมายเลข 3452 ช่วงดงพระราม - ห้วยขื่อ กม.ที่ 10+900 - 15+857 ต.โนนห้อม อ.เมืองปราจีนบุรี จ.ปราจีนบุรี
สาเหตุ: เนื่องจากมีฝนตกหนัก เป็นระยะเวลาติดต่อกัน
การแก้ไขเบื้องต้น: ติดตั้งป้ายเตือนน้ำท่วม และปักหลักขาวแดงเพื่ออำนวยความปลอดภัยแก่ผู้ใช้เส้นทาง</desc>
    <time>2026-10-10T20:04:09.041Z</time>
    <type>iTIC</type>
  </wpt>
  <wpt lat="14.072829" lon="101.478834">
    <name>น้ำท่วมทางหลวง 3452 ช่วงดงพระราม - ห้วยขื่อ (ผ่านได้)</name>
    <desc>น้ำท่วม ทล.3452 กม.10+900 - 15+857 ทางหลวงหมายเลข 3452 ช่วงดงพระราม - ห้วยขื่อ กม.ที่ 10+900 - 15+857 ต.โนนห้อม อ.เมืองปราจีนบุรี จ.ปราจีนบุรี
สาเหตุ: เนื่องจากมีฝนตกหนัก เป็นระยะเวลาติดต่อกัน
การแก้ไขเบื้องต้น: ติดตั้งป้ายเตือนน้ำท่วม และปักหลักขาวแดงเพื่ออำนวยความปลอดภัยแก่ผู้ใช้เส้นทาง</desc>
    <time>2026-10-10T20:04:09.041Z</time>
    <type>iTIC</type>
  </wpt>
  <wpt lat="13.984008" lon="100.616404">
    <name>น้ำท่วมทางหลวง 1 ช่วงสนามกีฬาธูปะเตมีย์ - ต่างระดับคลองหลวง (ผ่านได้)</name>
    <desc>น้ำท่วมขังรอระบายจุดกลับรถใต้สะพาน ทล.1 ทางหลวงหมายเลข 1 ช่วงสนามกีฬาธูปะเตมีย์ - ต่างระดับคลองหลวง กม.ที่ 31+500 - 32+800 ต.ประชาธิปัตย์ อ.ธัญบุรี จ.ปทุมธานี
สาเหตุ: ระดับน้ำในคลองสูง/น้ำท่วมรอระบาย
การแก้ไขเบื้องต้น:</desc>
    <time>2026-10-10T20:04:09.041Z</time>
    <type>iTIC</type>
  </wpt>
  <wpt lat="14.024986" lon="100.539699">
    <name>น้ำท่วมทางหลวง 346 ช่วงแยกบ้านกลาง - ต่างระดับลาดหลุมแก้ว (ผ่านได้)</name>
    <desc>น้ำท่วมขังรอการระบาย ทางหลวงหมายเลข 346 ช่วงแยกบ้านกลาง - ต่างระดับลาดหลุมแก้ว กม.ที่ 10+300 - 10+300 ต.บ้านกลาง อ.เมืองปทุมธานี จ.ปทุมธานี
สาเหตุ: ฝนตก
การแก้ไขเบื้องต้น: หมวดฯ ได้นำเจ้าหน้าที่ปิดการใช้จุดกลับรถใต้สะพานปทุมธานี1 เนื่องจากปริมาณน้ำสูง รถไม่สามารถผ่านได้</desc>
    <time>2026-10-10T20:04:09.041Z</time>
    <type>iTIC</type>
  </wpt>
  <wpt lat="13.999805" lon="100.685524">
    <name>น้ำท่วมทางหลวง 305 ช่วงต่างระดับรังสิต - วัดนาบุญ (ผ่านได้)</name>
    <desc>น้ำท่วมขังบนผิวจราจร ทางหลวงหมายเลข 305 ช่วงต่างระดับรังสิต - วัดนาบุญ กม.ที่ 7+500 - 7+800 ต.บึงยี่โถ อ.ธัญบุรี จ.ปทุมธานี
สาเหตุ: ฝนตกหนักทำให้มีปริมาณน้ำท่วมขังบนผิวจราจรจำนวนมาก
ซึ่งระบบระบายน้ำเดิมไม่เพียงพอต่อการระบายน้ำในปริมาณมาก
การแก้ไขเบื้องต้น: เจ้าหน้าที่หมวดฯดำเนินการตรวจสายทางในความรับผิดชอบเฝ้าระวังปริมาณน้ำที่เพิ่มขึ้น</desc>
    <time>2026-10-10T20:04:09.041Z</time>
    <type>iTIC</type>
  </wpt>
  <wpt lat="13.996769" lon="100.671778">
    <name>น้ำท่วมทางหลวง 305 ช่วงต่างระดับรังสิต - วัดนาบุญ (ผ่านได้)</name>
    <desc>นำ้ท่วมขังบนผิวจราจร ทางหลวงหมายเลข 305 ช่วงต่างระดับรังสิต - วัดนาบุญ กม.ที่ 5+700 - 6+300 ต.บึงยี่โถ อ.ธัญบุรี จ.ปทุมธานี
สาเหตุ: ฝนตกหนักทำให้มีปริมาณน้ำท่วมขังบนผิวจราจรจำนวนมาก
ซึ่งระบบระบายน้ำเดิมไม่เพียงพอต่อการระบายน้ำในปริมาณมาก
การแก้ไขเบื้องต้น: เจ้าหน้าที่หมวดฯดำเนินการตรวจสายทางในความรับผิดชอบเฝ้าระวังปริมาณน้ำที่เพิ่มขึ้น</desc>
    <time>2026-10-10T20:04:09.041Z</time>
    <type>iTIC</type>
  </wpt>
  <wpt lat="14.278509" lon="100.679125">
    <name>น้ำท่วมทางหลวง 309 ช่วงวังน้อย - บ้านสร้าง (ผ่านได้)</name>
    <desc>น้ำท่วมผิวจราจร ทางหลวงหมายเลข 309 ช่วงวังน้อย - บ้านสร้าง กม.ที่ 6+500 - 6+600 ต.ลำตาเสา อ.วังน้อย จ.พระนครศรีอยุธยา
สาเหตุ: น้ำรอการระบาย
การแก้ไขเบื้องต้น:</desc>
    <time>2026-10-10T20:04:09.041Z</time>
    <type>iTIC</type>
  </wpt>
  <wpt lat="13.662000" lon="101.110268">
    <name>น้ำท่วมทางหลวง 304 ช่วงฉะเชิงเทรา - เสม็ดเหนือ (ผ่านไม่ได้)</name>
    <desc>น้ำท่วมผิวจราจร ทางหลวงหมายเลข 304 ช่วงฉะเชิงเทรา - เสม็ดเหนือ กม.ที่ 77+100 - 77+500 ต.บางตีนเป็ด อ.เมืองฉะเชิงเทรา จ.ฉะเชิงเทรา
สาเหตุ: เนื่องจากฝนตกหนักฉับพลันในพื้นที่ ทำให้น้ำท่วมผิวจราจร
ทางหลักและทางขนานขวาทาง
การแก้ไขเบื้องต้น: เจ้าหน้าที่หมวดทางหลวงสิบเอ็ดศอกได้อำนวยความสะดวกและความปลอดภัยเรียบร้อย ได้ปิดการจราจรทางขนานด้านขวาทาง2ช่องจราจร รถเล็กไม่สามารถผ่านได้</desc>
    <time>2026-10-10T20:04:09.041Z</time>
    <type>iTIC</type>
  </wpt>
  <wpt lat="14.112437" lon="101.507405">
    <name>น้ำท่วมทางหลวง 3649 ช่วงคุ้งยอ - ห้วยขื่อ (ผ่านได้)</name>
    <desc>น้ำท่วม ทางหลวงหมายเลข 3649 ช่วงคุ้งยอ - ห้วยขื่อ กม.ที่ 26+800 - 30+354 ต.โพธิ์งาม อ.ประจันตคาม จ.ปราจีนบุรี
สาเหตุ: เนื่องจากมีฝนตกหนักเป็นระยะเวลาติดต่อกัน
การแก้ไขเบื้องต้น: ปิดถนนนำเเบริเออกับ กรวยเตือน และป้ายน้ำท่วมเพื่ออำนวยความสะดวกแก่ผู้ใช้เส้นทาง</desc>
    <time>2026-10-10T20:04:09.041Z</time>
    <type>iTIC</type>
  </wpt>
  <wpt lat="13.985970" lon="100.712885">
    <name>น้ำท่วมทางหลวง 3902 ช่วงคลองระพีพัฒน์ - บึงคำพร้อย (ผ่านได้)</name>
    <desc>น้ำท่วมขังบนผิวจราจร ทางหลวงหมายเลข 3902 ช่วงคลองระพีพัฒน์ - บึงคำพร้อย กม.ที่ 24+650 - 24+700 ต.บึงคำพร้อย อ.ลำลูกกา จ.ปทุมธานี
สาเหตุ: ฝนตกหนักทำให้มีปริมาณน้ำท่วมขังบนผิวจราจรจำนวนมาก
ซึ่งระบบระบายน้ำเดิมไม่เพียงพอต่อการระบายน้ำในปริมาณมาก
การแก้ไขเบื้องต้น: เจ้าหน้าที่หมวดฯดำเนินการตรวจสายทางในความรับผิดชอบเฝ้าระวังปริมาณน้ำที่เพิ่มขึ้น</desc>
    <time>2026-10-10T20:04:09.042Z</time>
    <type>iTIC</type>
  </wpt>
  <wpt lat="13.583732" lon="100.856971">
    <name>น้ำท่วมทางหลวง 34 ช่วงทางเข้าท่าอากาศยานสุวรรณภูมิ - บางวัว (ผ่านได้)</name>
    <desc>น้ำท่วม ทางหลวงหมายเลข 34 ช่วงทางเข้าท่าอากาศยานสุวรรณภูมิ - บางวัว กม.ที่ 29+000 - 30+000 ต.บางบ่อ อ.บางบ่อ จ.สมุทรปราการ
สาเหตุ: จุดเฝ้าระวังที่ 26 ฝนตกหนักในพื้นที่ ประกอบกับน้ำในลำคลองมากทำให้การระบายน้ำทำได้ช้า ส่งผลให้น้ำท่วมขังถึงวันที่ 10 ต.ค. 69
การแก้ไขเบื้องต้น: เจ้าหน้าที่หมวดทางหลวงอำนวยความสะดวก เดินเครื่องสูบน้ำเร่งระบายน้ำลงคลอง</desc>
    <time>2026-10-10T20:04:09.042Z</time>
    <type>iTIC</type>
  </wpt>
  <wpt lat="14.001235" lon="101.219104">
    <name>น้ำท่วมทางหลวง 3076 ช่วงบางหอย - วังขอน (ผ่านได้)</name>
    <desc>น้ำท่วม ทล.3076 กม.23+000 - กม.25+480 ทางหลวงหมายเลข 3076 ช่วงบางหอย - วังขอน กม.ที่ 23+000 - 25+480 ต.บ้านสร้าง อ.บ้านสร้าง จ.ปราจีนบุรี
สาเหตุ: เนื่องจากฝนตกหนักทำให้น้ำล้นตลิ่งทำให่เกิดน้ำท่วมบนท้องถนนรถเล็กไม่สามารถผ่านได้
การแก้ไขเบื้องต้น: หมวดทางหลวงบ้านสร้างอำนวยความสะดวกแก่ประชาชน ผู้ประสานงาน นายบุญเรือง สุขหอม หัวหน้าหมวดทางหลวงบ้านสร้าง</desc>
    <time>2026-10-10T20:04:09.042Z</time>
    <type>iTIC</type>
  </wpt>
  <wpt lat="13.740554" lon="100.645670">
    <name>น้ำท่วมทางหลวง 3702 ช่วงถนนศรีนครินทร์ - ลาดกระบัง (ผ่านได้)</name>
    <desc>น่ำท่วมทาง ทางหลวงหมายเลข 3702 ช่วงถนนศรีนครินทร์ - ลาดกระบัง กม.ที่ 0+352 - 22+435 ต.สวนหลวง อ.สวนหลวง จ.กรุงเทพมหานคร
สาเหตุ: เนื่องจากฝนตกต่อเนื่อง ระดับน้ำในคลองสูง ไม่สามาระบายได้
การแก้ไขเบื้องต้น: ตรวจเส้นทางอำนวยการจราจร ติดตั้งป้ายเตือน</desc>
    <time>2026-10-10T20:04:09.042Z</time>
    <type>iTIC</type>
  </wpt>
  <wpt lat="13.884946" lon="100.647910">
    <name>น้ำท่วมทางหลวง 3701 ช่วงถนนศรีนครินทร์ - ลาดกระบัง (ผ่านได้)</name>
    <desc>น้ำท่วมทาง ทางหลวงหมายเลข 3701 ช่วงถนนศรีนครินทร์ - ลาดกระบัง กม.ที่ 0+312 - 22+375 ต.คลองถนน อ.สายไหม จ.กรุงเทพมหานคร
สาเหตุ: เนื่องจากฝนตกต่อเนื่อง ระดับน้ำในคลองสูง ไม่สามาระบายได้
การแก้ไขเบื้องต้น: ติดตั้งป้ายเตือน ซ่อมหลุมบ่อเป็นการชั่วคราว</desc>
    <time>2026-10-10T20:04:09.042Z</time>
    <type>iTIC</type>
  </wpt>
  <wpt lat="14.058525" lon="101.358336">
    <name>น้ำท่วมทางหลวง 319 ช่วงหนองชะอม - ปราจีนบุรี (ผ่านได้)</name>
    <desc>น้ำท่วม ทล.319 ระหว่างกม.11+400 - กม.12+063  สำนักงานฯ  บ้านพักแขวงฯ จุดกลับรถใต้สะพานแขวงฯ ทางหลวงหมายเลข 319 ช่วงหนองชะอม - ปราจีนบุรี กม.ที่ 11+400 - 12+063 ต.หน้าเมือง อ.เมืองปราจีนบุรี จ.ปราจีนบุรี
สาเหตุ: เนื่องจากมีฝนตกหนัก เป็นระยะเวลาติดต่อกัน
การแก้ไขเบื้องต้น: ติดตั้งป้ายเตือนน้ำท่วม และ เจ้าหน้าที่หมวดฯเนินหอมคอยเฝ้าระวังเพื่ออำนวยความปลอดภัยแก่ผู้ใช้เส้นทาง</desc>
    <time>2026-10-10T20:04:09.042Z</time>
    <type>iTIC</type>
  </wpt>
  <wpt lat="14.077498" lon="101.510283">
    <name>น้ำท่วมทางหลวง 33 ช่วงประจันตคาม - พระปรง (ผ่านได้)</name>
    <desc>น้ำท่วม ทล.33 กม.169+571-170+800 ทางหลวงหมายเลข 33 ช่วงประจันตคาม - พระปรง กม.ที่ 169+571 - 170+800 ต.โพธิ์งาม อ.ประจันตคาม จ.ปราจีนบุรี
สาเหตุ: ฝนตกหนักต่อเนื่องเป็นเวลานาน
การแก้ไขเบื้องต้น: หมวดทางหลวงประจันตคาม ติดตั้งป้ายเตือนน้ำท่วม และปักหลักขาว - แดง เพื่อบอกแนวไหล่ทาง อำนวยความปลอดภัยแก่ผู้ใช้เส้นทาง</desc>
    <time>2026-10-10T20:04:09.042Z</time>
    <type>iTIC</type>
  </wpt>
  <wpt lat="14.077498" lon="101.510283">
    <name>น้ำท่วมทางหลวง 33 ช่วงประจันตคาม - พระปรง (ผ่านได้)</name>
    <desc>น้ำท่วม ทล.33 กม.169+571-170+800 ทางหลวงหมายเลข 33 ช่วงประจันตคาม - พระปรง กม.ที่ 169+571 - 170+800 ต.โพธิ์งาม อ.ประจันตคาม จ.ปราจีนบุรี
สาเหตุ: ฝนตกหนักต่อเนื่องเป็นเวลานาน
การแก้ไขเบื้องต้น: หมวดทางหลวงประจันตคาม ติดตั้งป้ายเตือนน้ำท่วม และปักหลักขาว - แดง เพื่อบอกแนวไหล่ทาง อำนวยความปลอดภัยแก่ผู้ใช้เส้นทาง</desc>
    <time>2026-10-10T20:04:09.042Z</time>
    <type>iTIC</type>
  </wpt>
  <wpt lat="14.079854" lon="101.509095">
    <name>น้ำท่วมทางหลวง 33 ช่วงจิกสูง - ประจันตคาม (ผ่านได้)</name>
    <desc>น้ำท่วม ทางหลวงหมายเลข 33 ช่วงจิกสูง - ประจันตคาม กม.ที่ 169+300 - 169+571 ต.โพธิ์งาม อ.ประจันตคาม จ.ปราจีนบุรี
สาเหตุ: เนื่องจากมีฝนตกหนักเป็นระยะเวลาติดต่อกัน
การแก้ไขเบื้องต้น: มีรถ ยิบซี ของทหารหน่วยจิตอาสาคอยรับส่งผู้ประสบภัยจากน้ำท่วมของทหารหน่วยจิตอาสาคอยรับส่ง ผู้ที่ต้องการอพยพจากน้ำท่วม</desc>
    <time>2026-10-10T20:04:09.042Z</time>
    <type>iTIC</type>
  </wpt>
  <wpt lat="14.079854" lon="101.509095">
    <name>น้ำท่วมทางหลวง 33 ช่วงจิกสูง - ประจันตคาม (ผ่านได้)</name>
    <desc>น้ำท่วม ทางหลวงหมายเลข 33 ช่วงจิกสูง - ประจันตคาม กม.ที่ 169+300 - 169+571 ต.โพธิ์งาม อ.ประจันตคาม จ.ปราจีนบุรี
สาเหตุ: เนื่องจากมีฝนตกหนักเป็นระยะเวลาติดต่อกัน
การแก้ไขเบื้องต้น: มีรถ ยิบซี ของทหารหน่วยจิตอาสาคอยรับส่งผู้ประสบภัยจากน้ำท่วมของทหารหน่วยจิตอาสาคอยรับส่ง ผู้ที่ต้องการอพยพจากน้ำท่วม</desc>
    <time>2026-10-10T20:04:09.042Z</time>
    <type>iTIC</type>
  </wpt>
  <wpt lat="13.818986" lon="100.731586">
    <name>น้ำท่วมทางหลวง 304 ช่วงแยกเข้ามีนบุรี - คลองหลวงแพ่ง (ผ่านได้)</name>
    <desc>น้ำท่วมเขตทางหลวง(สะพานสามวา-แยกนิมิตรใหม่) ทางหลวงหมายเลข 304 ช่วงแยกเข้ามีนบุรี - คลองหลวงแพ่ง กม.ที่ 27+770 - 29+050 ต.มีนบุรี อ.มีนบุรี จ.กรุงเทพมหานคร
สาเหตุ: เนื่องจากฝนตกหนักต่อเนื่องไม่สามารถระบายน้ำได้
การแก้ไขเบื้องต้น: รอการระบายน้ำ (รถกระบะและรถเล็กสามารถสัญจรผ่านได้  บริเวณแยกนิมิตรใหม่ด้านขาเข้าและขาออก )</desc>
    <time>2026-10-10T20:04:09.042Z</time>
    <type>iTIC</type>
  </wpt>
  <wpt lat="14.067055" lon="100.707628">
    <name>น้ำท่วมทางหลวง 3214 ช่วงบ้านพร้าว - คลองห้า (ผ่านได้)</name>
    <desc>นำ้ท่วมขังบนผิวจราจร ทางหลวงหมายเลข 3214 ช่วงบ้านพร้าว - คลองห้า กม.ที่ 14+600 - 14+800 ต.คลองห้า อ.คลองหลวง จ.ปทุมธานี
สาเหตุ: ฝนตกหนักทำให้มีปริมาณน้ำท่วมขังบนผิวจราจรจำนวนมาก
ซึ่งระบบระบายน้ำเดิมไม่เพียงพอต่อการระบายน้ำในปริมาณมาก
การแก้ไขเบื้องต้น: เจ้าหน้าที่หมวดฯดำเนินการตรวจสายทางในความรับผิดชอบเฝ้าระวังปริมาณน้ำที่เพิ่มขึ้น</desc>
    <time>2026-10-10T20:04:09.042Z</time>
    <type>iTIC</type>
  </wpt>
  <wpt lat="13.999946" lon="100.686093">
    <name>น้ำท่วมทางหลวง 305 ช่วงต่างระดับรังสิต - วัดนาบุญ (ผ่านได้)</name>
    <desc>นำ้ท่วมขังบนผิวจราจร ทางหลวงหมายเลข 305 ช่วงต่างระดับรังสิต - วัดนาบุญ กม.ที่ 7+500 - 7+800 ต.บึงยี่โถ อ.ธัญบุรี จ.ปทุมธานี
สาเหตุ: ฝนตกหนักทำให้มีปริมาณน้ำท่วมขังบนผิวจราจรจำนวนมาก
ซึ่งระบบระบายน้ำเดิมไม่เพียงพอต่อการระบายน้ำในปริมาณมาก
การแก้ไขเบื้องต้น: เจ้าหน้าที่หมวดฯดำเนินการตรวจสายทางในความรับผิดชอบเฝ้าระวังปริมาณน้ำที่เพิ่มขึ้น</desc>
    <time>2026-10-10T20:04:09.042Z</time>
    <type>iTIC</type>
  </wpt>
  <wpt lat="13.996566" lon="100.670876">
    <name>น้ำท่วมทางหลวง 305 ช่วงต่างระดับรังสิต - วัดนาบุญ (ผ่านได้)</name>
    <desc>น้ำท่วมขังบนผิวจราจร ทางหลวงหมายเลข 305 ช่วงต่างระดับรังสิต - วัดนาบุญ กม.ที่ 5+900 - 6+100 ต.บึงยี่โถ อ.ธัญบุรี จ.ปทุมธานี
สาเหตุ: ฝนตกหนักทำให้มีปริมาณน้ำท่วมขังบนผิวจราจรจำนวนมาก
ซึ่งระบบระบายน้ำเดิมไม่เพียงพอต่อการระบายน้ำในปริมาณมาก
การแก้ไขเบื้องต้น: เจ้าหน้าที่หมวดฯดำเนินการตรวจสายทางในความรับผิดชอบเฝ้าระวังปริมาณน้ำที่เพิ่มขึ้น</desc>
    <time>2026-10-10T20:04:09.042Z</time>
    <type>iTIC</type>
  </wpt>
  <wpt lat="13.997869" lon="100.676699">
    <name>น้ำท่วมทางหลวง 305 ช่วงต่างระดับรังสิต - วัดนาบุญ (ผ่านได้)</name>
    <desc>นำ้ท่วมขังบนผิวจราจร ทางหลวงหมายเลข 305 ช่วงต่างระดับรังสิต - วัดนาบุญ กม.ที่ 6+500 - 6+600 ต.บึงยี่โถ อ.ธัญบุรี จ.ปทุมธานี
สาเหตุ: ฝนตกหนักทำให้มีปริมาณน้ำท่วมขังบนผิวจราจรจำนวนมาก
ซึ่งระบบระบายน้ำเดิมไม่เพียงพอต่อการระบายน้ำในปริมาณมาก
การแก้ไขเบื้องต้น: เจ้าหน้าที่หมวดฯดำเนินการตรวจสายทางในความรับผิดชอบเฝ้าระวังปริมาณน้ำที่เพิ่มขึ้น</desc>
    <time>2026-10-10T20:04:09.042Z</time>
    <type>iTIC</type>
  </wpt>
  <wpt lat="13.948449" lon="100.793746">
    <name>น้ำท่วมทางหลวง 3312 ช่วงลำลูกกา - คลอง16 (ผ่านได้)</name>
    <desc>น้ำท่วมขังผิวจราจรทล.3312 ทางหลวงหมายเลข 3312 ช่วงลำลูกกา - คลอง16 กม.ที่ 17+000 - 17+400 ต.บึงทองหลาง อ.ลำลูกกา จ.ปทุมธานี
สาเหตุ: เนื่องจากเกิดฝนตกหนักติดต่อกันเป็นเวลานาน ทำให้เกิดน้ำขังบนผิวจราจร ปริมาณน้ำรอการระบาย
การแก้ไขเบื้องต้น: จัดเจ้าหน้าที่อำนวยความสะดวกและติดตั้งป้ายเตือน</desc>
    <time>2026-10-10T20:04:09.042Z</time>
    <type>iTIC</type>
  </wpt>
  <wpt lat="13.886403" lon="100.578101">
    <name>น้ำท่วมทางหลวง 304 ช่วงคลองประปา - คันนายาว (ผ่านได้)</name>
    <desc>น้ำท่วมเขตทางหลวง ทางหลวงหมายเลข 304 ช่วงคลองประปา - คันนายาว กม.ที่ 8+400 - 8+400 ต.ทุ่งสองห้อง อ.หลักสี่ จ.กรุงเทพมหานคร
สาเหตุ: ฝนตกปริมาณมากทำให้การระบายน้ำไม่ทันจึงเกิดน้ำท่วมขัง
การแก้ไขเบื้องต้น: เจ้าหน้าทีหมวดทางหลวงหลักสี่ดำเนินการเดินเครื่องสูบน้ำเพื่อทำการระบายน้ำ</desc>
    <time>2026-10-10T20:04:09.042Z</time>
    <type>iTIC</type>
  </wpt>
  <wpt lat="13.618466" lon="101.241428">
    <name>น้ำท่วมทางหลวง 3121 ช่วงบางคล้า - แปลงยาว (ผ่านไม่ได้)</name>
    <desc>น้ำท่วมผิวจราจร ทางหลวงหมายเลข 3121 ช่วงบางคล้า - แปลงยาว กม.ที่ 0+000 - 15+300 ต.แปลงยาว อ.แปลงยาว จ.ฉะเชิงเทรา
สาเหตุ: ฝนตกตลอดทั้งวัน ทำให้น้ำท่วมผิวจราจร รอการระบายน้ำ
การแก้ไขเบื้องต้น: เจ้าหน้าที่หมวดทางหลวงบางคล้าอำนวยความสะดวก ปิดทางกม
.4+100 - 12+600</desc>
    <time>2026-10-10T20:04:09.042Z</time>
    <type>iTIC</type>
  </wpt>
  <wpt lat="13.996703" lon="100.671317">
    <name>น้ำท่วมทางหลวง 305 ช่วงต่างระดับรังสิต - วัดนาบุญ (ผ่านได้)</name>
    <desc>น้ำท่วมขังผิวจราจรรอระบาย ทางหลวงหมายเลข 305 ช่วงต่างระดับรังสิต - วัดนาบุญ กม.ที่ 6+025 - 6+200 ต.บึงยี่โถ อ.ธัญบุรี จ.ปทุมธานี
สาเหตุ: ฝนตกหนักเป็นระยะเวลานาน ระดับน้ำสาธารหนุนสูง
การแก้ไขเบื้องต้น: เก็บขยะที่กีดขวางทางน้ำ ติดตั้งเครื่องสูบน้ำช่วยระบาย</desc>
    <time>2026-10-10T20:04:09.042Z</time>
    <type>iTIC</type>
  </wpt>
  <wpt lat="14.005079" lon="100.556446">
    <name>น้ำท่วมทางหลวง 346 ช่วงแยกบางพูน - แยกบ้านกลาง (ผ่านได้)</name>
    <desc>น้ำท่วมขัง ทล.346 ทางหลวงหมายเลข 346 ช่วงแยกบางพูน - แยกบ้านกลาง กม.ที่ 6+900 - 7+495 ต.บ้านกลาง อ.เมืองปทุมธานี จ.ปทุมธานี
สาเหตุ: ฝนตกหนักน้ำรอระบาย1-2ช่องจราจร ระดับน้ำรอระบายประมาณ 10-15 ซม.
การแก้ไขเบื้องต้น:</desc>
    <time>2026-10-10T20:04:09.042Z</time>
    <type>iTIC</type>
  </wpt>
  <wpt lat="13.817151" lon="100.744248">
    <name>น้ำท่วมทางหลวง 304 ช่วงแยกเข้ามีนบุรี - คลองหลวงแพ่ง (ผ่านได้)</name>
    <desc>น้ำท่วมเขตทางหลวง(แยกรามคำแหง-สะพานคลองตะโหนด) ทางหลวงหมายเลข 304 ช่วงแยกเข้ามีนบุรี - คลองหลวงแพ่ง กม.ที่ 29+300 - 30+950 ต.แสนแสบ อ.มีนบุรี จ.กรุงเทพมหานคร
สาเหตุ: เนื่องมีฝนตกหนักต่อเนื่องทำให้น้ำท่วมขัง
การแก้ไขเบื้องต้น: รอการระบายน้ำ (รถกระบะยกสูงสามารถสัญจรผ่านได้)</desc>
    <time>2026-10-10T20:04:09.042Z</time>
    <type>iTIC</type>
  </wpt>
  <wpt lat="13.751198" lon="100.504232">
    <name>เบี่ยงจราจร ถนนมหาไชย</name>
    <desc>รฟม. แจ้งปิดเบี่ยงจราจรถนนมหาไชย บริเวณร้าน Praew Bakery ถึง ร้าน โต ซาลาเปา เพื่อดำเนินการขุดดิน สำหรับงานขุดเจาะอุโมงค์ โครงการรถไฟฟ้าสายสีม่วงฯ วันที่ 15 กันยายน - 31 ตุลาคม 2569 ตลอด 24 ชั่วโมง มีผลให้บริเวณปิดเบี่ยง สามารถสัญจรได้ 2 ช่องจราจร

Cr. โครงการรถไฟฟ้าสายสีม่วงฯ</desc>
    <time>2026-10-10T20:04:09.042Z</time>
    <type>iTIC</type>
  </wpt>
  <wpt lat="13.756532" lon="100.512807">
    <name>เบี่ยงจราจร ถนนหลานหลวง</name>
    <desc>รฟม. แจ้งปิดเบี่ยงการจราจรเพิ่มเติม บนถนนหลานหลวง บริเวณซอยหลานหลวง 3 ถึงบริเวณซอยหลานหลวง 1 เพื่อดำเนินงานก่อสร้าง สถานีหลานหลวง (OR06) โครงการรถไฟฟ้าสายสีส้ม ช่วงบางขุนนนท์ - ศูนย์วัฒนธรรมแห่งประเทศไทย ตั้งแต่วันที่ 16 กันยายน 2569 เวลา 22:00 น. – 31 ตุลาคม 2569 เวลา 24:00 น. (ตลอด 24 ชั่วโมง)

Cr.FM91</desc>
    <time>2026-10-10T20:04:09.042Z</time>
    <type>iTIC</type>
  </wpt>
  <wpt lat="13.797529" lon="100.520693">
    <name>เบี่ยงจราจร ถนนทหาร</name>
    <desc>สำนักการโยธา แจ้งปิดเบี่ยงการจราจร ถนนทหาร ฝั่งหน้าศูนย์ราชการฯ อาคารข้าราชบริพาร 904 และกรมอุตสาหกรรมทหาร ระยะทาง 180 เมตร เพื่อดําเนินงานเสาเข็ม ฐานราก และเสาตอม่อ โครงการก่อสร้างสะพานข้ามแม่น้ำเจ้าพระยา บริเวณแยกเกียกกาย ช่วงที่ 3 ตั้งแต่วันที่ 10 ก.ย. 69 เป็นต้นไป ตลอด 24 ชม.

Cr.สำนักการโยธา กรุงเทพมหานคร</desc>
    <time>2026-10-10T20:04:09.042Z</time>
    <type>iTIC</type>
  </wpt>
  <wpt lat="13.752129" lon="100.535006">
    <name>เบี่ยงจราจร ถนนเพชรบุรี</name>
    <desc>รฟม. แจ้งปิดเบี่ยงการจราจรเพิ่มเติมบนถนนเพชรบุรี บริเวณซอยเพชรบุรี 13/1 ถึงบริเวณซอยเพชรบุรี 15 และบริเวณซอยเพชรบุรี 20/1 เพื่อดำเนินงานก่อสร้างกำแพงกันดิน (Diaphragm Wall)  และงานติดตั้ง Temporary Deck สถานีประตูน้ำ (OR09) โครงการรถไฟฟ้าสายสีส้ม ช่วงบางขุนนนท์ - ศูนย์วัฒนธรรมแห่งประเทศไทย ตั้งแต่วันที่ 8 กันยายน 2569 เวลา 22.00 น. – 7 พฤศจิกายน 2569 เวลา 24.00 น. ตลอด 24 ชั่วโมง

Cr.FM91</desc>
    <time>2026-10-10T20:04:09.042Z</time>
    <type>iTIC</type>
  </wpt>
  <wpt lat="13.758610" lon="100.542406">
    <name>เบี่ยงจราจร ถนนราชปรารภ</name>
    <desc>รฟม. แจ้งปิดเบี่ยงการจราจรเพิ่มเติมถนนราชปรารภ บริเวณซอยราชปรารภ 16 ถึง บริเวณซอยราชปรารภ 14 เพื่อดำเนินงานติดตั้ง Temporary Deck สถานีราชปรารภ (OR10) โครงการรถไฟฟ้าสายสีส้ม ช่วงบางขุนนนท์ – ศูนย์วัฒนธรรมแห่งประเทศไทย ตั้งแต่วันที่ 15 สิงหาคม 2569 เวลา 22.00 น. – 31 ตุลาคม 2569 เวลา 24.00 น. ตลอด 24 ชั่วโมง

Cr. โครงการรถไฟฟ้าสายสีส้ม</desc>
    <time>2026-10-10T20:04:09.042Z</time>
    <type>iTIC</type>
  </wpt>
  <wpt lat="13.762914" lon="100.497196">
    <name>เบี่ยงจราจร ถนนพระสุเมรุ</name>
    <desc>รฟม. แจ้งปิดเบี่ยงการจราจรเพิ่มเติม ถนนพระสุเมรุ บริเวณกลุ่มงานตกแต่ง สำนักการโยธา ถึง THE GEMS MALL เพื่อดำเนินการก่อสร้างสถานีอนุสาวรีย์ประชาธิปไตยโครงการรถไฟฟ้าสายสีม่วง ช่วงเตาปูน - ราษฎร์บูรณะ (วงแหวนกาญจนาภิเษก) ตั้งแต่วันที่ 1 สิงหาคม 2569 - 31 มกราคม 2570 ตลอด 24 ชั่วโมง

Cr.โครงการรถไฟฟ้าสายสีม่วง</desc>
    <time>2026-10-10T20:04:09.042Z</time>
    <type>iTIC</type>
  </wpt>
  <wpt lat="13.766906" lon="100.549724">
    <name>เบี่ยงจราจร ทางพิเศษศรีรัช</name>
    <desc>รฟม. แจ้งปิดเบี่ยงการจราจรบริเวณพื้นที่เกาะกลาง เชิงทางลง ด่านดินแดง ขาออก ทางพิเศษเฉลิมมหานคร เพื่อดำเนินงานก่อสร้างอาคารปล่องระบายอากาศที่ 6 (IVS06) โครงการรถไฟฟ้าสายสีส้ม ช่วงบางขุนนนท์ - ศูนย์วัฒนธรรมแห่งประเทศไทย ตั้งแต่วันที่ 17 พฤษภาคม 2569 เวลา 22.00 น. – วันที่ 30 ธันวาคม 2571 เวลา 24.00 น. (ตลอด 24 ชั่วโมง)

Cr.FM91</desc>
    <time>2026-10-10T20:04:09.042Z</time>
    <type>iTIC</type>
  </wpt>
  <wpt lat="13.763280" lon="100.544678">
    <name>เบี่ยงจราจร ถนนดินแดง</name>
    <desc>รฟม.แจ้งปิดเบี่ยงการจราจรถนนดินแดง บริเวณแยกสามเหลี่ยมดินแดง ถึง ซอยบุญชูศรี เพื่อดำเนินงานเสริมความแข็งแรงฐานรากสะพานข้ามแยกสามเหลี่ยมดินแดง (Underpin) โครงการรถไฟฟ้าสายสีส้ม ช่วงบางขุนนนท์ - ศูนย์วัฒนธรรมฯ วันที่ 7 พ.ค.69 เวลา 22.00 น. – 20 ธ.ค.69 เวลา 24.00 น. (ตลอด 24ชม.)

Cr. @Traffic_1197</desc>
    <time>2026-10-10T20:04:09.042Z</time>
    <type>iTIC</type>
  </wpt>
  <wpt lat="13.753164" lon="100.531946">
    <name>ถนนปิด สะพานข้ามแยกราชเทวี</name>
    <desc>ปิดสะพานข้ามแยกราชเทวี วันที่ 17 ม.ค. 68 ตั้งแต่เวลา 22.00 น. เป็นต้นไป ตลอด 24 ชม. จนถึงวันที่ 30 เม.ย. 71 เพื่อดำเนินการก่อสร้างสถานีรถไฟฟ้าใต้ดินราชเทวี

- แนะหลีกเลี่ยงเส้นทาง และเผื่อเวลาในการเดินทาง</desc>
    <time>2026-10-10T20:04:09.042Z</time>
    <type>iTIC</type>
  </wpt>
  <wpt lat="13.673682" lon="100.505275">
    <name>เบี่ยงจราจร ถนนสุขสวัสดิ์</name>
    <desc>รฟม. แจ้งปิดเบี่ยงจราจร ฝั่งขาเข้าและขาออก 1 ช่องจราจร ชิดเกาะกลาง บนถนนสุขสวัสดิ์ บริเวณซอยสุขสวัสดิ์ 46 ถึง คลองราษฎร์บูรณะ  ระยะทางประมาณ 200 เมตร เพื่องานก่อสร้างสถานีแยกประชาอุทิศ โครงการรถไฟฟ้าสายสีม่วง ช่วงเตาปูน - ราษฎร์บูรณะ (วงแหวนกาญจนาภิเษก) ระหว่างวันที่ 8 ธันวาคม 2565 – 31 กรกฎาคม  2570 ตั้งแต่เวลา 22.00 น. เป็นต้นไป ตลอด 24 ชั่วโมง

Cr.FM91</desc>
    <time>2026-10-10T20:04:09.042Z</time>
    <type>iTIC</type>
  </wpt>
  <wpt lat="13.688601" lon="100.483290">
    <name>ปิดเบี่ยงจราจร ถนนสุขสวัสดิ์</name>
    <desc>รฟม. แจ้งปิดเบี่ยงจราจร ฝั่งขาเข้าและขาออก 1 ช่องจราจร ชิดเกาะกลาง บริเวณซอยสุขสวัสดิ์5 ถนนสุขสวัสดิ์ ระหว่างวันที่ 6 ธันวาคม 2565 - 20 ตุลาคม 2570 ตั้งแต่เวลา 22.00 น. เป็นต้นไป ตลอด 24 ชั่วโมง

Cr. @GCC_1111</desc>
    <time>2026-10-10T20:04:09.042Z</time>
    <type>iTIC</type>
  </wpt>
  <wpt lat="13.644323" lon="100.524869">
    <name>เบี่ยงจราจร ถนนสุขสวัสดิ์</name>
    <desc>รฟม. แจ้งปิดเบี่ยงจราจร ฝั่งขาเข้าและขาออก 1 ช่องจราจรชิดเกาะกลาง บนถนนสุขสวัสดิ์ บริเวณซอยสุขสวัสดิ์ 43 ถึง ซอยสุขสวัสดิ์ 45 ระยะทางประมาณ 330 เมตร เพื่อดำเนินงานก่อสร้างสถานีครุใน โครงการรถไฟฟ้าสายสีม่วง ช่วงเตาปูน - ราษฎร์บูรณะ (วงแหวนกาญจนาภิเษก) ระหว่างวันที่ 1 ธันวาคม 2565 – 20 ตุลาคม 2570 ตั้งแต่เวลา 22.00 น. เป็นต้นไป ตลอด 24 ชั่วโมง

Cr.FM91</desc>
    <time>2026-10-10T20:04:09.042Z</time>
    <type>iTIC</type>
  </wpt>
</gpx>
